{"type": "FeatureCollection", "features": [ {"type": "Feature", "properties": {"norad_id": 34819, "name": "COSMOS 2251 DEB", "group": "cosmos-2251-debris", "lat": 19.892668137754228, "lon": -42.17815894448022, "alt_km": 677.9228088231866, "timestamp": "2025-12-12T03:50:52.813652+00:00", "meta": {"OBJECT_NAME": "COSMOS 2251 DEB", "OBJECT_ID": "1993-036ABJ", "EPOCH": "2025-12-11T12:39:52.439328", "MEAN_MOTION": 14.6393976, "ECCENTRICITY": 0.00156974, "INCLINATION": 74.0191, "RA_OF_ASC_NODE": 144.9895, "ARG_OF_PERICENTER": 239.0012, "MEAN_ANOMALY": 187.5455, "EPHEMERIS_TYPE": 0, "CLASSIFICATION_TYPE": "U", "NORAD_CAT_ID": 34819, "ELEMENT_SET_NO": 999, "REV_AT_EPOCH": 88211, "BSTAR": 0.0030654339, "MEAN_MOTION_DOT": 0.00016081, "MEAN_MOTION_DDOT": 0}, "tle": {"line1": "1 34819U 93036ABJ 25345.52769027  .00016081  00000+0  30654-2 0  9998", "line2": "2 34819  74.0191 144.9895 0015697 239.0012 187.5455 14.63939760882117"}}, "geometry": {"type": "Point", "coordinates": [-42.17815894448022, 19.892668137754228]}}, {"type": "Feature", "properties": {"norad_id": 34823, "name": "COSMOS 2251 DEB", "group": "cosmos-2251-debris", "lat": -44.25327036756209, "lon": -60.43398221022635, "alt_km": 629.0020150030905, "timestamp": "2025-12-12T03:50:52.813662+00:00", "meta": {"OBJECT_NAME": "COSMOS 2251 DEB", "OBJECT_ID": "1993-036ABN", "EPOCH": "2025-12-10T14:30:29.359008", "MEAN_MOTION": 14.54904355, "ECCENTRICITY": 0.0154887, "INCLINATION": 74.0414, "RA_OF_ASC_NODE": 106.322, "ARG_OF_PERICENTER": 191.6219, "MEAN_ANOMALY": 168.1356, "EPHEMERIS_TYPE": 0, "CLASSIFICATION_TYPE": "U", "NORAD_CAT_ID": 34823, "ELEMENT_SET_NO": 999, "REV_AT_EPOCH": 88350, "BSTAR": 0.0013618, "MEAN_MOTION_DOT": 6.85e-05, "MEAN_MOTION_DDOT": 0}, "tle": {"line1": "1 34823U 93036ABN 25344.60450647  .00006850  00000+0  13618-2 0  9990", "line2": "2 34823  74.0414 106.3220 0154887 191.6219 168.1356 14.54904355883502"}}, "geometry": {"type": "Point", "coordinates": [-60.43398221022635, -44.25327036756209]}}, {"type": "Feature", "properties": {"norad_id": 34845, "name": "COSMOS 2251 DEB", "group": "cosmos-2251-debris", "lat": -30.914329666213973, "lon": -20.689142399675074, "alt_km": 747.0612302825748, "timestamp": "2025-12-12T03:50:52.813673+00:00", "meta": {"OBJECT_NAME": "COSMOS 2251 DEB", "OBJECT_ID": "1993-036ABP", "EPOCH": "2025-12-09T20:04:05.418048", "MEAN_MOTION": 14.45850049, "ECCENTRICITY": 0.00222586, "INCLINATION": 74.0237, "RA_OF_ASC_NODE": 153.7694, "ARG_OF_PERICENTER": 315.2139, "MEAN_ANOMALY": 44.7222, "EPHEMERIS_TYPE": 0, "CLASSIFICATION_TYPE": "U", "NORAD_CAT_ID": 34845, "ELEMENT_SET_NO": 999, "REV_AT_EPOCH": 87424, "BSTAR": 0.00046671234, "MEAN_MOTION_DOT": 1.636e-05, "MEAN_MOTION_DDOT": 0}, "tle": {"line1": "1 34845U 93036ABP 25343.83617382  .00001636  00000+0  46671-3 0  9992", "line2": "2 34845  74.0237 153.7694 0022258 315.2139  44.7222 14.45850049874243"}}, "geometry": {"type": "Point", "coordinates": [-20.689142399675074, -30.914329666213973]}}, {"type": "Feature", "properties": {"norad_id": 34846, "name": "COSMOS 2251 DEB", "group": "cosmos-2251-debris", "lat": 29.749908519993387, "lon": 73.43964748735907, "alt_km": 751.4645043050905, "timestamp": "2025-12-12T03:50:52.813683+00:00", "meta": {"OBJECT_NAME": "COSMOS 2251 DEB", "OBJECT_ID": "1993-036ABQ", "EPOCH": "2025-12-11T12:13:50.320416", "MEAN_MOTION": 14.4720468, "ECCENTRICITY": 0.00260714, "INCLINATION": 74.0307, "RA_OF_ASC_NODE": 264.0756, "ARG_OF_PERICENTER": 330.6522, "MEAN_ANOMALY": 29.3171, "EPHEMERIS_TYPE": 0, "CLASSIFICATION_TYPE": "U", "NORAD_CAT_ID": 34846, "ELEMENT_SET_NO": 999, "REV_AT_EPOCH": 87386, "BSTAR": 0.0016503215, "MEAN_MOTION_DOT": 6.031e-05, "MEAN_MOTION_DDOT": 0}, "tle": {"line1": "1 34846U 93036ABQ 25345.50961019  .00006031  00000+0  16503-2 0  9992", "line2": "2 34846  74.0307 264.0756 0026071 330.6522  29.3171 14.47204680873866"}}, "geometry": {"type": "Point", "coordinates": [73.43964748735907, 29.749908519993387]}}, {"type": "Feature", "properties": {"norad_id": 34852, "name": "COSMOS 2251 DEB", "group": "cosmos-2251-debris", "lat": -52.93411506254731, "lon": 106.3116562399623, "alt_km": 782.5958179818726, "timestamp": "2025-12-12T03:50:52.813693+00:00", "meta": {"OBJECT_NAME": "COSMOS 2251 DEB", "OBJECT_ID": "1993-036ABW", "EPOCH": "2025-12-11T03:21:40.223232", "MEAN_MOTION": 14.37002528, "ECCENTRICITY": 0.00160835, "INCLINATION": 74.033, "RA_OF_ASC_NODE": 265.9134, "ARG_OF_PERICENTER": 9.31, "MEAN_ANOMALY": 350.8348, "EPHEMERIS_TYPE": 0, "CLASSIFICATION_TYPE": "U", "NORAD_CAT_ID": 34852, "ELEMENT_SET_NO": 999, "REV_AT_EPOCH": 87511, "BSTAR": 0.00017988234, "MEAN_MOTION_DOT": 5.08e-06, "MEAN_MOTION_DDOT": 0}, "tle": {"line1": "1 34852U 93036ABW 25345.14004888  .00000508  00000+0  17988-3 0  9993", "line2": "2 34852  74.0330 265.9134 0016083   9.3100 350.8348 14.37002528875117"}}, "geometry": {"type": "Point", "coordinates": [106.3116562399623, -52.93411506254731]}}, {"type": "Feature", "properties": {"norad_id": 34854, "name": "COSMOS 2251 DEB", "group": "cosmos-2251-debris", "lat": 54.264643853834386, "lon": -176.8243385197314, "alt_km": 673.084500854703, "timestamp": "2025-12-12T03:50:52.813703+00:00", "meta": {"OBJECT_NAME": "COSMOS 2251 DEB", "OBJECT_ID": "1993-036ABY", "EPOCH": "2025-12-10T04:25:53.682240", "MEAN_MOTION": 14.76585117, "ECCENTRICITY": 0.0066172, "INCLINATION": 74.0287, "RA_OF_ASC_NODE": 163.5908, "ARG_OF_PERICENTER": 275.7691, "MEAN_ANOMALY": 83.5942, "EPHEMERIS_TYPE": 0, "CLASSIFICATION_TYPE": "U", "NORAD_CAT_ID": 34854, "ELEMENT_SET_NO": 999, "REV_AT_EPOCH": 71844, "BSTAR": 0.00096088, "MEAN_MOTION_DOT": 6.925e-05, "MEAN_MOTION_DDOT": 0}, "tle": {"line1": "1 34854U 93036ABY 25344.18464910  .00006925  00000+0  96088-3 0  9991", "line2": "2 34854  74.0287 163.5908 0066172 275.7691  83.5942 14.76585117718445"}}, "geometry": {"type": "Point", "coordinates": [-176.8243385197314, 54.264643853834386]}}, {"type": "Feature", "properties": {"norad_id": 34856, "name": "COSMOS 2251 DEB", "group": "cosmos-2251-debris", "lat": 64.15996213839531, "lon": 122.38784533919369, "alt_km": 562.3005608025533, "timestamp": "2025-12-12T03:50:52.813713+00:00", "meta": {"OBJECT_NAME": "COSMOS 2251 DEB", "OBJECT_ID": "1993-036ACA", "EPOCH": "2025-12-11T13:15:05.666688", "MEAN_MOTION": 15.05962388, "ECCENTRICITY": 0.00329642, "INCLINATION": 73.9966, "RA_OF_ASC_NODE": 87.2929, "ARG_OF_PERICENTER": 225.0346, "MEAN_ANOMALY": 148.7122, "EPHEMERIS_TYPE": 0, "CLASSIFICATION_TYPE": "U", "NORAD_CAT_ID": 34856, "ELEMENT_SET_NO": 999, "REV_AT_EPOCH": 89094, "BSTAR": 0.0030960777, "MEAN_MOTION_DOT": 0.00045898, "MEAN_MOTION_DDOT": 0}, "tle": {"line1": "1 34856U 93036ACA 25345.55214892  .00045898  00000+0  30961-2 0  9996", "line2": "2 34856  73.9966  87.2929 0032964 225.0346 148.7122 15.05962388890943"}}, "geometry": {"type": "Point", "coordinates": [122.38784533919369, 64.15996213839531]}}, {"type": "Feature", "properties": {"norad_id": 34857, "name": "COSMOS 2251 DEB", "group": "cosmos-2251-debris", "lat": 2.60436076718472, "lon": -72.81136388146287, "alt_km": 672.2438089714724, "timestamp": "2025-12-12T03:50:52.813723+00:00", "meta": {"OBJECT_NAME": "COSMOS 2251 DEB", "OBJECT_ID": "1993-036ACB", "EPOCH": "2025-12-10T10:09:42.100416", "MEAN_MOTION": 14.5885085, "ECCENTRICITY": 0.00659222, "INCLINATION": 74.0153, "RA_OF_ASC_NODE": 111.2471, "ARG_OF_PERICENTER": 236.0948, "MEAN_ANOMALY": 183.224, "EPHEMERIS_TYPE": 0, "CLASSIFICATION_TYPE": "U", "NORAD_CAT_ID": 34857, "ELEMENT_SET_NO": 999, "REV_AT_EPOCH": 87867, "BSTAR": 0.001891387, "MEAN_MOTION_DOT": 9.104e-05, "MEAN_MOTION_DDOT": 0}, "tle": {"line1": "1 34857U 93036ACB 25344.42340394  .00009104  00000+0  18914-2 0  9993", "line2": "2 34857  74.0153 111.2471 0065922 236.0948 183.2240 14.58850850878672"}}, "geometry": {"type": "Point", "coordinates": [-72.81136388146287, 2.60436076718472]}}, {"type": "Feature", "properties": {"norad_id": 34859, "name": "COSMOS 2251 DEB", "group": "cosmos-2251-debris", "lat": 12.91159824535777, "lon": -15.369628741195916, "alt_km": 521.9681157225386, "timestamp": "2025-12-12T03:50:52.813733+00:00", "meta": {"OBJECT_NAME": "COSMOS 2251 DEB", "OBJECT_ID": "1993-036ACD", "EPOCH": "2025-12-11T01:06:52.575840", "MEAN_MOTION": 15.14253483, "ECCENTRICITY": 0.00025384, "INCLINATION": 74.0303, "RA_OF_ASC_NODE": 343.1808, "ARG_OF_PERICENTER": 332.7735, "MEAN_ANOMALY": 90.6317, "EPHEMERIS_TYPE": 0, "CLASSIFICATION_TYPE": "U", "NORAD_CAT_ID": 34859, "ELEMENT_SET_NO": 999, "REV_AT_EPOCH": 88333, "BSTAR": 0.007028231, "MEAN_MOTION_DOT": 0.00130884, "MEAN_MOTION_DDOT": 0}, "tle": {"line1": "1 34859U 93036ACD 25345.04644185  .00130884  00000+0  70282-2 0  9995", "line2": "2 34859  74.0303 343.1808 0002538 332.7735  90.6317 15.14253483883330"}}, "geometry": {"type": "Point", "coordinates": [-15.369628741195916, 12.91159824535777]}}, {"type": "Feature", "properties": {"norad_id": 34861, "name": "COSMOS 2251 DEB", "group": "cosmos-2251-debris", "lat": -51.379371070032235, "lon": 31.012480176894236, "alt_km": 566.8145939488586, "timestamp": "2025-12-12T03:50:52.813744+00:00", "meta": {"OBJECT_NAME": "COSMOS 2251 DEB", "OBJECT_ID": "1993-036ACF", "EPOCH": "2025-12-11T05:59:10.857408", "MEAN_MOTION": 15.02431826, "ECCENTRICITY": 0.00068951, "INCLINATION": 74.0185, "RA_OF_ASC_NODE": 53.8951, "ARG_OF_PERICENTER": 52.0075, "MEAN_ANOMALY": 8.8474, "EPHEMERIS_TYPE": 0, "CLASSIFICATION_TYPE": "U", "NORAD_CAT_ID": 34861, "ELEMENT_SET_NO": 999, "REV_AT_EPOCH": 88070, "BSTAR": 0.0046993553, "MEAN_MOTION_DOT": 0.0006286, "MEAN_MOTION_DDOT": 0}, "tle": {"line1": "1 34861U 93036ACF 25345.24943122  .00062860  00000+0  46994-2 0  9994", "line2": "2 34861  74.0185  53.8951 0006895  52.0075   8.8474 15.02431826880703"}}, "geometry": {"type": "Point", "coordinates": [31.012480176894236, -51.379371070032235]}}]}